{
  "norad_id": 53172,
  "name": "STARLINK-4299",
  "history": [
    {
      "epoch": "2026-03-28T22:05:41.426304Z",
      "apogee_km": 540.7688997688228,
      "perigee_km": 538.7340720495777,
      "latitude_deg": 4.19778591582487e-05,
      "longitude_deg": -85.0560171850884,
      "height_km": 540.485364192378,
      "semi_major_axis_km": 6917.8884859092,
      "eccentricity": 0.00014707,
      "inclination_deg": 53.2177,
      "raan_deg": 72.7007,
      "arg_perigee_deg": 80.8535,
      "mean_anomaly_deg": 279.2624,
      "mean_motion_rev_day": 15.08837351
    },
    {
      "epoch": "2026-03-29T04:27:14.040288Z",
      "apogee_km": 540.7703279655543,
      "perigee_km": 538.7337014396253,
      "latitude_deg": 3.199719725033862e-05,
      "longitude_deg": 178.10732656604654,
      "height_km": 540.4848570181723,
      "semi_major_axis_km": 6917.8890147025895,
      "eccentricity": 0.0001472,
      "inclination_deg": 53.2178,
      "raan_deg": 71.5111,
      "arg_perigee_deg": 80.802,
      "mean_anomaly_deg": 279.3139,
      "mean_motion_rev_day": 15.08837178
    },
    {
      "epoch": "2026-03-30T04:18:01.242720Z",
      "apogee_km": 540.7613419471572,
      "perigee_km": 538.7551523254879,
      "latitude_deg": 3.4493853107394125e-05,
      "longitude_deg": 174.9709135412581,
      "height_km": 540.5619813335705,
      "semi_major_axis_km": 6917.895247136322,
      "eccentricity": 0.000145,
      "inclination_deg": 53.218,
      "raan_deg": 67.0507,
      "arg_perigee_deg": 84.7426,
      "mean_anomaly_deg": 275.3732,
      "mean_motion_rev_day": 15.08835139
    }
  ]
}